ONEWEB-0349             
1 49281U 21090C   25058.38420976  .00000049  00000+0  88005-4 0  9992
2 49281  87.9314   8.9278 0001890  84.2902 275.8446 13.20771810167151
ONEWEB-0353             
1 49282U 21090D   25058.38797857 -.00000115  00000+0 -34428-3 0  9993
2 49282  87.9038  24.1085 0002086  88.6307 271.5061 13.14504011165206
ONEWEB-0356             
1 49283U 21090E   25058.38263218  .00000103  00000+0  22264-3 0  9993
2 49283  87.9312   8.9203 0001267 109.4349 250.6921 13.20772684167151
ONEWEB-0358             
1 49284U 21090F   25058.56412944  .00000128  00000+0  28222-3 0  9993
2 49284  87.9315   8.8733 0001638  80.4888 279.6431 13.20770887167903
ONEWEB-0359             
1 49285U 21090G   25058.56097297  .00000116  00000+0  25322-3 0  9999
2 49285  87.9314   8.8879 0001675  67.3783 292.7527 13.20771437167884
ONEWEB-0360             
1 49286U 21090H   25058.55149629  .00000054  00000+0  10125-3 0  9992
2 49286  87.9313   8.8954 0001779  75.1570 284.9760 13.20770587167195
ONEWEB-0361             
1 49287U 21090J   25058.38105357  .00000104  00000+0  22498-3 0  9996
2 49287  87.9312   8.9243 0001750  84.1792 275.9541 13.20772474167624
ONEWEB-0362             
1 49288U 21090K   25058.48829113  .00000069  00000+0  13999-3 0  9997
2 49288  87.9180  39.3386 0002034  78.1931 281.9430 13.19724268164300
